{
  "type": "FeatureCollection",
  "features": [
    {
      "type": "Feature",
      "properties": {
        "norad_id": 41866,
        "name": "GOES 16",
        "group": "weather",
        "lat": 0.02659264523631599,
        "lon": -154.02277738508772,
        "alt_km": 35777.29224379725,
        "timestamp": "2025-12-04T15:47:53.739253+00:00",
        "meta_object_name": "GOES 16",
        "meta_object_id": "2016-071A",
        "meta_epoch": "2025-12-04T06:22:50.889792",
        "meta_mean_motion": 1.00270654,
        "meta_eccentricity": 0.00034612,
        "meta_inclination": 0.0616,
        "meta_ra_of_asc_node": 105.3349,
        "meta_arg_of_pericenter": 152.3416,
        "meta_mean_anomaly": 166.7054,
        "meta_ephemeris_type": 0,
        "meta_classification_type": "U",
        "meta_norad_cat_id": 41866,
        "meta_element_set_no": 999,
        "meta_rev_at_epoch": 3314,
        "meta_bstar": 0,
        "meta_mean_motion_dot": -7.5e-07,
        "meta_mean_motion_ddot": 0,
        "tle_line1": "1 41866U 16071A   25338.26586678 -.00000075  00000+0  00000+0 0  9990",
        "tle_line2": "2 41866   0.0616 105.3349 0003461 152.3416 166.7054  1.00270654 33146"
      },
      "geometry": {
        "type": "Point",
        "coordinates": [
          -154.02277738508772,
          0.02659264523631599
        ]
      }
    },
    {
      "type": "Feature",
      "properties": {
        "norad_id": 41882,
        "name": "FENGYUN 4A",
        "group": "weather",
        "lat": -0.2298230699829839,
        "lon": 74.41525980828392,
        "alt_km": 35803.06123145639,
        "timestamp": "2025-12-04T15:47:53.739266+00:00",
        "meta_object_name": "FENGYUN 4A",
        "meta_object_id": "2016-077A",
        "meta_epoch": "2025-12-03T17:33:02.668032",
        "meta_mean_motion": 1.00278005,
        "meta_eccentricity": 0.00050458,
        "meta_inclination": 1.8246,
        "meta_ra_of_asc_node": 82.4798,
        "meta_arg_of_pericenter": 142.0307,
        "meta_mean_anomaly": 235.3013,
        "meta_ephemeris_type": 0,
        "meta_classification_type": "U",
        "meta_norad_cat_id": 41882,
        "meta_element_set_no": 999,
        "meta_rev_at_epoch": 3297,
        "meta_bstar": 0,
        "meta_mean_motion_dot": -3.4e-06,
        "meta_mean_motion_ddot": 0,
        "tle_line1": "1 41882U 16077A   25337.73128088 -.00000340  00000+0  00000+0 0  9997",
        "tle_line2": "2 41882   1.8246  82.4798 0005045 142.0307 235.3013  1.00278005 32976"
      },
      "geometry": {
        "type": "Point",
        "coordinates": [
          74.41525980828392,
          -0.2298230699829839
        ]
      }
    },
    {
      "type": "Feature",
      "properties": {
        "norad_id": 41884,
        "name": "CYGFM05",
        "group": "weather",
        "lat": -34.886259934145755,
        "lon": 6.314343402487104,
        "alt_km": 433.142753593982,
        "timestamp": "2025-12-04T15:47:53.739277+00:00",
        "meta_object_name": "CYGFM05",
        "meta_object_id": "2016-078A",
        "meta_epoch": "2025-12-03T18:31:05.681856",
        "meta_mean_motion": 15.47125161,
        "meta_eccentricity": 0.00094122,
        "meta_inclination": 34.9582,
        "meta_ra_of_asc_node": 105.6898,
        "meta_arg_of_pericenter": 97.1465,
        "meta_mean_anomaly": 263.0327,
        "meta_ephemeris_type": 0,
        "meta_classification_type": "U",
        "meta_norad_cat_id": 41884,
        "meta_element_set_no": 999,
        "meta_rev_at_epoch": 49837,
        "meta_bstar": 0.00060726194,
        "meta_mean_motion_dot": 0.00031867,
        "meta_mean_motion_ddot": 0,
        "tle_line1": "1 41884U 16078A   25337.77159354  .00031867  00000+0  60726-3 0  9996",
        "tle_line2": "2 41884  34.9582 105.6898 0009412  97.1465 263.0327 15.47125161498370"
      },
      "geometry": {
        "type": "Point",
        "coordinates": [
          6.314343402487104,
          -34.886259934145755
        ]
      }
    },
    {
      "type": "Feature",
      "properties": {
        "norad_id": 41885,
        "name": "CYGFM04",
        "group": "weather",
        "lat": 31.957490869012258,
        "lon": 138.25628964329226,
        "alt_km": 408.9113108909378,
        "timestamp": "2025-12-04T15:47:53.739288+00:00",
        "meta_object_name": "CYGFM04",
        "meta_object_id": "2016-078B",
        "meta_epoch": "2025-12-03T16:19:08.760864",
        "meta_mean_motion": 15.49783379,
        "meta_eccentricity": 0.00084885,
        "meta_inclination": 34.9344,
        "meta_ra_of_asc_node": 81.322,
        "meta_arg_of_pericenter": 126.9571,
        "meta_mean_anomaly": 233.1929,
        "meta_ephemeris_type": 0,
        "meta_classification_type": "U",
        "meta_norad_cat_id": 41885,
        "meta_element_set_no": 999,
        "meta_rev_at_epoch": 49853,
        "meta_bstar": 0.0011385967,
        "meta_mean_motion_dot": 0.0006591,
        "meta_mean_motion_ddot": 0,
        "tle_line1": "1 41885U 16078B   25337.67996251  .00065910  00000+0  11386-2 0  9994",
        "tle_line2": "2 41885  34.9344  81.3220 0008488 126.9571 233.1929 15.49783379498534"
      },
      "geometry": {
        "type": "Point",
        "coordinates": [
          138.25628964329226,
          31.957490869012258
        ]
      }
    },
    {
      "type": "Feature",
      "properties": {
        "norad_id": 41886,
        "name": "CYGFM02",
        "group": "weather",
        "lat": 21.93130107641498,
        "lon": 108.55351063830217,
        "alt_km": 409.3941748730358,
        "timestamp": "2025-12-04T15:47:53.739299+00:00",
        "meta_object_name": "CYGFM02",
        "meta_object_id": "2016-078C",
        "meta_epoch": "2025-12-03T16:27:15.350976",
        "meta_mean_motion": 15.51121687,
        "meta_eccentricity": 0.00102169,
        "meta_inclination": 34.9434,
        "meta_ra_of_asc_node": 79.7274,
        "meta_arg_of_pericenter": 125.87,
        "meta_mean_anomaly": 234.2972,
        "meta_ephemeris_type": 0,
        "meta_classification_type": "U",
        "meta_norad_cat_id": 41886,
        "meta_element_set_no": 999,
        "meta_rev_at_epoch": 49866,
        "meta_bstar": 0.00061920212,
        "meta_mean_motion_dot": 0.00037463,
        "meta_mean_motion_ddot": 0,
        "tle_line1": "1 41886U 16078C   25337.68559434  .00037463  00000+0  61920-3 0  9996",
        "tle_line2": "2 41886  34.9434  79.7274 0010216 125.8700 234.2972 15.51121687498664"
      },
      "geometry": {
        "type": "Point",
        "coordinates": [
          108.55351063830217,
          21.93130107641498
        ]
      }
    },
    {
      "type": "Feature",
      "properties": {
        "norad_id": 41887,
        "name": "CYGFM01",
        "group": "weather",
        "lat": -31.42573796299109,
        "lon": 41.24418736397518,
        "alt_km": 431.08868174055897,
        "timestamp": "2025-12-04T15:47:53.739310+00:00",
        "meta_object_name": "CYGFM01",
        "meta_object_id": "2016-078D",
        "meta_epoch": "2025-12-03T18:24:28.844928",
        "meta_mean_motion": 15.4768667,
        "meta_eccentricity": 0.00090329,
        "meta_inclination": 34.9412,
        "meta_ra_of_asc_node": 108.1317,
        "meta_arg_of_pericenter": 88.3823,
        "meta_mean_anomaly": 271.7933,
        "meta_ephemeris_type": 0,
        "meta_classification_type": "U",
        "meta_norad_cat_id": 41887,
        "meta_element_set_no": 999,
        "meta_rev_at_epoch": 49831,
        "meta_bstar": 0.00054644493,
        "meta_mean_motion_dot": 0.00029225,
        "meta_mean_motion_ddot": 0,
        "tle_line1": "1 41887U 16078D   25337.76700052  .00029225  00000+0  54644-3 0  9992",
        "tle_line2": "2 41887  34.9412 108.1317 0009032  88.3823 271.7933 15.47686670498317"
      },
      "geometry": {
        "type": "Point",
        "coordinates": [
          41.24418736397518,
          -31.42573796299109
        ]
      }
    },
    {
      "type": "Feature",
      "properties": {
        "norad_id": 41888,
        "name": "CYGFM08",
        "group": "weather",
        "lat": -26.831265425652184,
        "lon": 38.97598971726713,
        "alt_km": 428.68781059030425,
        "timestamp": "2025-12-04T15:47:53.739321+00:00",
        "meta_object_name": "CYGFM08",
        "meta_object_id": "2016-078E",
        "meta_epoch": "2025-12-04T00:33:13.378464",
        "meta_mean_motion": 15.48884344,
        "meta_eccentricity": 0.00107018,
        "meta_inclination": 34.9454,
        "meta_ra_of_asc_node": 89.5504,
        "meta_arg_of_pericenter": 117.3678,
        "meta_mean_anomaly": 242.8134,
        "meta_ephemeris_type": 0,
        "meta_classification_type": "U",
        "meta_norad_cat_id": 41888,
        "meta_element_set_no": 999,
        "meta_rev_at_epoch": 49858,
        "meta_bstar": 0.00067089551,
        "meta_mean_motion_dot": 0.00037497,
        "meta_mean_motion_ddot": 0,
        "tle_line1": "1 41888U 16078E   25338.02307151  .00037497  00000+0  67090-3 0  9995",
        "tle_line2": "2 41888  34.9454  89.5504 0010701 117.3678 242.8134 15.48884344498580"
      },
      "geometry": {
        "type": "Point",
        "coordinates": [
          38.97598971726713,
          -26.831265425652184
        ]
      }
    }
  ]
}